{
  "norad_id": 58165,
  "name": "STARLINK-30814",
  "history": [
    {
      "epoch": "2026-03-28T12:04:07.580064",
      "apogee_km": 476.1537401108699,
      "perigee_km": 474.36637415836867,
      "latitude_deg": -0.19021444704953022,
      "longitude_deg": 44.775088960072026,
      "semi_major_axis_km": 6853.397057134619,
      "eccentricity": 0.0001304,
      "inclination_deg": 53.1598,
      "raan_deg": 131.9471,
      "arg_perigee_deg": 92.1759,
      "mean_anomaly_deg": 267.9391,
      "mean_motion_rev_day": 15.30184933
    }
  ]
}