{"fetched_at":"2026-03-29T02:12:04Z","count":15717,"tles":[{"name":"STARLINK-30814","line1":"1 58165U 23166R   26087.50286551  .00000847  00000+0  40732-4 0  9996","line2":"2 58165  53.1598 131.9471 0001304  92.1759 267.9391 15.30184933136065","category":"Starlink"}]}